OBJECT_NAME,OBJECT_ID,EPOCH,MEAN_MOTION,ECCENTRICITY,INCLINATION,RA_OF_ASC_NODE,ARG_OF_PERICENTER,MEAN_ANOMALY,EPHEMERIS_TYPE,CLASSIFICATION_TYPE,NORAD_CAT_ID,ELEMENT_SET_NO,REV_AT_EPOCH,BSTAR,MEAN_MOTION_DOT,MEAN_MOTION_DDOT
BEIDOU-2 G3,2010-024A,2026-07-04T14:15:59.792256,1.00270638,.00078269,4.5546,61.4391,358.3314,156.4906,0,U,36590,999,5894,0,-.125E-5,0
BADR-5,2010-025A,2026-07-04T14:01:57.102816,1.00270847,.00045696,0.0557,114.1606,75.9161,333.4598,0,U,36592,999,5339,0,.166E-5,0
COMS 1,2010-032A,2026-07-04T07:04:06.610944,0.99169316,.00116841,4.8462,75.1543,14.0017,304.5143,0,U,36744,999,5125,0,-.123E-5,0
ARABSAT-5A,2010-032B,2026-07-03T14:04:49.274688,1.00275167,.00057964,0.0852,59.3271,58.0470,45.9611,0,U,36745,999,5881,0,.165E-5,0
ECHOSTAR 15,2010-034A,2026-07-04T12:37:05.850624,1.00270344,.00024717,0.0313,288.4755,148.4941,276.0417,0,U,36792,999,5849,0,.12E-6,0
BEIDOU-2 IGSO-1,2010-036A,2026-07-04T15:59:21.996384,1.00267388,.00591889,54.3059,162.8019,225.2573,241.8517,0,U,36828,999,5827,0,-.75E-6,0
NILESAT 201,2010-037A,2026-07-04T10:25:55.799904,1.00271876,.00054943,0.0399,222.3673,268.8521,300.7163,0,U,36830,999,5854,0,-.45E-6,0
RASCOM-QAF 1R,2010-037B,2026-07-03T13:56:57.528960,1.00271534,.0006582,0.0093,91.6422,1.8070,40.2800,0,U,36831,999,5847,0,.3E-6,0
AEHF-1 (USA 214),2010-039A,2026-07-04T07:11:13.428672,1.00269961,.00040334,8.2601,67.8216,32.0362,320.2023,0,U,36868,999,5382,0,.156E-5,0
XM-5,2010-053A,2026-07-02T20:29:51.095904,1.00271810,.00024153,0.0667,268.1133,288.6084,276.4302,0,U,37185,999,5764,0,-.12E-6,0
BSAT-3B,2010-056B,2026-07-04T15:51:09.117216,1.00272319,.00022882,0.0562,229.4564,309.0358,91.8049,0,U,37207,999,5227,0,-.338E-5,0
BEIDOU-2 G4,2010-057A,2026-07-04T13:47:39.602688,1.00271261,.00049362,3.6875,68.8440,187.6700,32.9577,0,U,37210,999,5746,0,-.102E-5,0
SKYTERRA 1,2010-061A,2026-07-04T03:08:29.579424,1.00270206,.0002214,5.1588,50.8236,42.9284,134.1987,0,U,37218,999,5736,0,-.108E-5,0
HYLAS 1,2010-065A,2026-06-30T07:17:51.718848,1.00272596,.00010436,5.6751,72.8623,340.0885,348.6881,0,U,37237,999,701,0,.96E-6,0
INTELSAT 17 (IS-17),2010-065B,2026-07-04T15:49:10.816608,1.00272080,.00025605,0.0048,42.3237,65.1480,118.4712,0,U,37238,999,5342,0,.11E-6,0
BEIDOU-2 IGSO-2,2010-068A,2026-07-02T16:12:29.062368,1.00278505,.00565896,47.5191,271.6399,213.9221,146.5191,0,U,37256,999,5695,0,-.187E-5,0
EUTELSAT KA-SAT 9A,2010-069A,2026-07-02T14:01:27.053760,1.00271458,.0003862,0.0605,12.7072,123.3444,3.9181,0,U,37258,999,4416,0,.72E-6,0
HISPASAT 30W-5,2010-070A,2026-07-04T09:43:34.967712,1.00270897,.00058026,0.0422,106.2353,9.8699,282.2085,0,U,37264,999,5335,0,-.204E-5,0
KOREASAT 6,2010-070B,2026-07-04T11:13:36.300000,1.00271886,.00026129,0.0199,71.9173,44.3221,134.5275,0,U,37265,999,5694,0,-.99E-6,0
BEIDOU-2 IGSO-3,2011-013A,2026-07-04T12:41:12.984000,1.00264094,.00352518,62.4309,39.9888,183.6568,356.2376,0,U,37384,999,5583,0,-.163E-5,0
INTELSAT 28 (IS-28),2011-016A,2026-07-04T10:18:56.469600,1.00271462,.00038727,1.8479,82.4220,24.4166,298.5955,0,U,37392,999,5345,0,-.214E-5,0
YAHSAT 1A,2011-016B,2026-07-02T18:26:34.333152,1.00269059,.00034,0.0185,40.6280,71.1376,138.1848,0,U,37393,999,4256,0,0,0
SBIRS GEO-1 (USA 230),2011-019A,2026-07-04T14:08:04.015968,1.00272823,.00019181,4.5740,53.1133,44.3946,88.9026,0,U,37481,999,5557,0,.11E-5,0
TELSTAR 14R,2011-021A,2026-07-04T08:27:21.375936,1.00270939,.00021207,0.0586,83.3299,355.7829,267.0993,0,U,37602,999,5600,0,-.268E-5,0
GSAT-8,2011-022A,2026-07-04T12:26:22.423776,1.00271356,.00021287,2.1730,81.6229,166.7757,275.8147,0,U,37605,999,5339,0,.96E-6,0
ST-2,2011-022B,2026-07-04T14:18:22.063680,1.00271221,.00016867,0.0147,72.7815,45.4958,106.9438,0,U,37606,999,5545,0,-.199E-5,0
ZHONGXING-10,2011-026A,2026-07-04T14:17:44.623968,1.00271431,.00037841,1.0897,84.0156,13.1037,125.4550,0,U,37677,999,5517,0,-.177E-5,0
SES-3,2011-035A,2026-07-04T13:23:53.251872,1.00272003,.00022828,1.3689,82.9123,14.0958,283.5401,0,U,37748,999,5476,0,-.9E-6,0
KAZSAT-2,2011-035B,2026-07-02T21:00:27.171072,1.00272906,.00018229,0.0160,119.0733,37.1147,166.3416,0,U,37749,999,5355,0,-.187E-5,0
BEIDOU-2 IGSO-4,2011-038A,2026-07-03T22:32:21.688224,1.00282089,.01598362,54.6040,165.5238,231.3868,317.1483,0,U,37763,999,5481,0,.29E-6,0
ASTRA 1N,2011-041A,2026-07-02T14:04:26.768352,1.00272787,.000588,0.0898,44.2622,55.7608,50.8904,0,U,37775,999,4468,0,.13E-5,0
BSAT-3C (JCSAT-110R),2011-041B,2026-07-03T16:19:03.078336,1.00271850,.00007756,0.0264,316.8457,197.5232,122.0426,0,U,37776,999,5063,0,-.339E-5,0
