BEIDOU-2 G3             
1 36590U 10024A   26185.59444204 -.00000125  00000+0  00000+0 0  9991
2 36590   4.5546  61.4391 0007826 358.3314 156.4906  1.00270638 58947
BADR-5                  
1 36592U 10025A   26185.58468869  .00000166  00000+0  00000+0 0  9990
2 36592   0.0557 114.1606 0004569  75.9161 333.4598  1.00270847 53390
COMS 1                  
1 36744U 10032A   26185.29452096 -.00000123  00000+0  00000+0 0  9994
2 36744   4.8462  75.1543 0011684  14.0017 304.5143  0.99169316 51255
ARABSAT-5A              
1 36745U 10032B   26184.58668142  .00000165  00000+0  00000+0 0  9992
2 36745   0.0852  59.3271 0005796  58.0470  45.9611  1.00275167 58817
ECHOSTAR 15             
1 36792U 10034A   26185.52576216  .00000012  00000+0  00000+0 0  9992
2 36792   0.0313 288.4755 0002471 148.4941 276.0417  1.00270344 58494
BEIDOU-2 IGSO-1         
1 36828U 10036A   26185.66622681 -.00000075  00000+0  00000+0 0  9997
2 36828  54.3059 162.8019 0059188 225.2573 241.8517  1.00267388 58274
NILESAT 201             
1 36830U 10037A   26185.43467361 -.00000045  00000+0  00000+0 0  9995
2 36830   0.0399 222.3673 0005494 268.8521 300.7163  1.00271876 58546
RASCOM-QAF 1R           
1 36831U 10037B   26184.58122140  .00000030  00000+0  00000+0 0  9997
2 36831   0.0093  91.6422 0006582   1.8070  40.2800  1.00271534 58477
AEHF-1 (USA 214)        
1 36868U 10039A   26185.29946098  .00000156  00000+0  00000+0 0  9993
2 36868   8.2601  67.8216 0004033  32.0362 320.2023  1.00269961 53820
XM-5                    
1 37185U 10053A   26183.85406361 -.00000012  00000+0  00000+0 0  9998
2 37185   0.0667 268.1133 0002415 288.6084 276.4302  1.00271810 57643
BSAT-3B                 
1 37207U 10056B   26185.66052219 -.00000338  00000+0  00000+0 0  9997
2 37207   0.0562 229.4564 0002288 309.0358  91.8049  1.00272319 52276
BEIDOU-2 G4             
1 37210U 10057A   26185.57476392 -.00000102  00000+0  00000+0 0  9993
2 37210   3.6875  68.8440 0004936 187.6700  32.9577  1.00271261 57460
SKYTERRA 1              
1 37218U 10061A   26185.13089791 -.00000108  00000+0  00000+0 0  9997
2 37218   5.1588  50.8236 0002214  42.9284 134.1987  1.00270206 57364
HYLAS 1                 
1 37237U 10065A   26181.30407082  .00000096  00000+0  00000+0 0  9999
2 37237   5.6751  72.8623 0001043 340.0885 348.6881  1.00272596  7010
INTELSAT 17 (IS-17)     
1 37238U 10065B   26185.65915297  .00000011  00000+0  00000+0 0  9991
2 37238   0.0048  42.3237 0002560  65.1480 118.4712  1.00272080 53423
BEIDOU-2 IGSO-2         
1 37256U 10068A   26183.67533637 -.00000187  00000+0  00000+0 0  9993
2 37256  47.5191 271.6399 0056589 213.9221 146.5191  1.00278505 56952
EUTELSAT KA-SAT 9A      
1 37258U 10069A   26183.58434090  .00000072  00000+0  00000+0 0  9991
2 37258   0.0605  12.7072 0003862 123.3444   3.9181  1.00271458 44162
HISPASAT 30W-5          
1 37264U 10070A   26185.40526583 -.00000204  00000+0  00000+0 0  9990
2 37264   0.0422 106.2353 0005802   9.8699 282.2085  1.00270897 53355
KOREASAT 6              
1 37265U 10070B   26185.46778125 -.00000099  00000+0  00000+0 0  9990
2 37265   0.0199  71.9173 0002612  44.3221 134.5275  1.00271886 56943
BEIDOU-2 IGSO-3         
1 37384U 11013A   26185.52862250 -.00000163  00000+0  00000+0 0  9992
2 37384  62.4309  39.9888 0035251 183.6568 356.2376  1.00264094 55838
INTELSAT 28 (IS-28)     
1 37392U 11016A   26185.42982025 -.00000214  00000+0  00000+0 0  9993
2 37392   1.8479  82.4220 0003872  24.4166 298.5955  1.00271462 53459
YAHSAT 1A               
1 37393U 11016B   26183.76845293  .00000000  00000+0  00000+0 0  9996
2 37393   0.0185  40.6280 0003400  71.1376 138.1848  1.00269059 42565
SBIRS GEO-1 (USA 230)   
1 37481U 11019A   26185.58893537  .00000110  00000+0  00000+0 0  9995
2 37481   4.5740  53.1133 0001918  44.3946  88.9026  1.00272823 55570
TELSTAR 14R             
1 37602U 11021A   26185.35233074 -.00000268  00000+0  00000+0 0  9997
2 37602   0.0586  83.3299 0002120 355.7829 267.0993  1.00270939 56005
GSAT-8                  
1 37605U 11022A   26185.51831509  .00000096  00000+0  00000+0 0  9994
2 37605   2.1730  81.6229 0002128 166.7757 275.8147  1.00271356 53395
ST-2                    
1 37606U 11022B   26185.59608870 -.00000199  00000+0  00000+0 0  9991
2 37606   0.0147  72.7815 0001686  45.4958 106.9438  1.00271221 55458
ZHONGXING-10            
1 37677U 11026A   26185.59565537 -.00000177  00000+0  00000+0 0  9991
2 37677   1.0897  84.0156 0003784  13.1037 125.4550  1.00271431 55177
SES-3                   
1 37748U 11035A   26185.55825523 -.00000090  00000+0  00000+0 0  9994
2 37748   1.3689  82.9123 0002282  14.0958 283.5401  1.00272003 54764
KAZSAT-2                
1 37749U 11035B   26183.87531448 -.00000187  00000+0  00000+0 0  9995
2 37749   0.0160 119.0733 0001822  37.1147 166.3416  1.00272906 53551
BEIDOU-2 IGSO-4         
1 37763U 11038A   26184.93913991  .00000029  00000+0  00000+0 0  9993
2 37763  54.6040 165.5238 0159836 231.3868 317.1483  1.00282089 54815
ASTRA 1N                
1 37775U 11041A   26183.58642093  .00000130  00000+0  00000+0 0  9995
2 37775   0.0898  44.2622 0005880  55.7608  50.8904  1.00272787 44680
BSAT-3C (JCSAT-110R)    
1 37776U 11041B   26184.67989674 -.00000339  00000+0  00000+0 0  9998
2 37776   0.0264 316.8457 0000775 197.5232 122.0426  1.00271850 50631
